[{"OBJECT_NAME":"ONEWEB-0685","OBJECT_ID":"2022-166AP","EPOCH":"2026-03-09T22:18:59.931648","MEAN_MOTION":13.21812338,"ECCENTRICITY":0.00014155,"INCLINATION":87.9158,"RA_OF_ASC_NODE":263.7781,"ARG_OF_PERICENTER":94.288,"MEAN_ANOMALY":265.8416,"EPHEMERIS_TYPE":0,"CLASSIFICATION_TYPE":"U","NORAD_CAT_ID":54679,"ELEMENT_SET_NO":999,"REV_AT_EPOCH":15830,"BSTAR":-7.1879725e-5,"MEAN_MOTION_DOT":-1.7e-7,"MEAN_MOTION_DDOT":0},{"OBJECT_NAME":"OSCAR 30 DEB","OBJECT_ID":"1985-066H","EPOCH":"2026-03-09T22:59:08.932128","MEAN_MOTION":13.51741247,"ECCENTRICITY":0.01487251,"INCLINATION":90.1664,"RA_OF_ASC_NODE":68.3325,"ARG_OF_PERICENTER":100.9381,"MEAN_ANOMALY":293.3903,"EPHEMERIS_TYPE":0,"CLASSIFICATION_TYPE":"U","NORAD_CAT_ID":21878,"ELEMENT_SET_NO":999,"REV_AT_EPOCH":98535,"BSTAR":0.0015825479,"MEAN_MOTION_DOT":1.119e-5,"MEAN_MOTION_DDOT":0}]
